[{"OBJECT_NAME":"STARLINK-34717","OBJECT_ID":"2025-165E","EPOCH":"2026-03-09T18:13:22.141056","MEAN_MOTION":15.05644459,"ECCENTRICITY":1.753e-5,"INCLINATION":97.603,"RA_OF_ASC_NODE":147.34,"ARG_OF_PERICENTER":167.0938,"MEAN_ANOMALY":193.0294,"EPHEMERIS_TYPE":0,"CLASSIFICATION_TYPE":"U","NORAD_CAT_ID":65060,"ELEMENT_SET_NO":999,"REV_AT_EPOCH":3480,"BSTAR":3.4347006e-5,"MEAN_MOTION_DOT":4.35e-6,"MEAN_MOTION_DDOT":0},{"OBJECT_NAME":"FENGYUN 1C DEB","OBJECT_ID":"1999-025AHJ","EPOCH":"2026-03-09T18:03:49.415328","MEAN_MOTION":14.96033857,"ECCENTRICITY":0.01248359,"INCLINATION":98.7826,"RA_OF_ASC_NODE":350.0057,"ARG_OF_PERICENTER":174.7814,"MEAN_ANOMALY":185.4738,"EPHEMERIS_TYPE":0,"CLASSIFICATION_TYPE":"U","NORAD_CAT_ID":30496,"ELEMENT_SET_NO":999,"REV_AT_EPOCH":2444,"BSTAR":0.00050780955,"MEAN_MOTION_DOT":6.595e-5,"MEAN_MOTION_DDOT":0}]
